{"type": "FeatureCollection", "features": [ {"type": "Feature", "properties": {"norad_id": 34303, "name": "COSMOS 2251 DEB", "group": "cosmos-2251-debris", "lat": -64.78541720024691, "lon": 149.04644022413987, "alt_km": 813.8509637284724, "timestamp": "2025-12-10T21:43:22.485037+00:00", "meta": {"OBJECT_NAME": "COSMOS 2251 DEB", "OBJECT_ID": "1993-036MZ", "EPOCH": "2025-12-10T07:56:01.863168", "MEAN_MOTION": 14.54396591, "ECCENTRICITY": 0.0134981, "INCLINATION": 74.0056, "RA_OF_ASC_NODE": 292.6077, "ARG_OF_PERICENTER": 71.5711, "MEAN_ANOMALY": 51.6375, "EPHEMERIS_TYPE": 0, "CLASSIFICATION_TYPE": "U", "NORAD_CAT_ID": 34303, "ELEMENT_SET_NO": 999, "REV_AT_EPOCH": 87927, "BSTAR": 0.0021766, "MEAN_MOTION_DOT": 0.00010437, "MEAN_MOTION_DDOT": 0}, "tle": {"line1": "1 34303U 93036MZ  25344.33057712  .00010437  00000+0  21766-2 0  9998", "line2": "2 34303  74.0056 292.6077 0134981  71.5711  51.6375 14.54396591879275"}}, "geometry": {"type": "Point", "coordinates": [149.04644022413987, -64.78541720024691]}}, {"type": "Feature", "properties": {"norad_id": 34304, "name": "COSMOS 2251 DEB", "group": "cosmos-2251-debris", "lat": 64.21316947713451, "lon": -90.41662822685383, "alt_km": 841.3756571626236, "timestamp": "2025-12-10T21:43:22.485047+00:00", "meta": {"OBJECT_NAME": "COSMOS 2251 DEB", "OBJECT_ID": "1993-036NA", "EPOCH": "2025-12-10T11:29:22.458624", "MEAN_MOTION": 14.37824567, "ECCENTRICITY": 0.01289402, "INCLINATION": 74.0135, "RA_OF_ASC_NODE": 126.7657, "ARG_OF_PERICENTER": 265.0097, "MEAN_ANOMALY": 159.9331, "EPHEMERIS_TYPE": 0, "CLASSIFICATION_TYPE": "U", "NORAD_CAT_ID": 34304, "ELEMENT_SET_NO": 999, "REV_AT_EPOCH": 87264, "BSTAR": 0.0023357871, "MEAN_MOTION_DOT": 7.731e-05, "MEAN_MOTION_DDOT": 0}, "tle": {"line1": "1 34304U 93036NA  25344.47873216  .00007731  00000+0  23358-2 0  9991", "line2": "2 34304  74.0135 126.7657 0128940 265.0097 159.9331 14.37824567872648"}}, "geometry": {"type": "Point", "coordinates": [-90.41662822685383, 64.21316947713451]}}, {"type": "Feature", "properties": {"norad_id": 34307, "name": "COSMOS 2251 DEB", "group": "cosmos-2251-debris", "lat": 31.14672945038933, "lon": 126.10915905622852, "alt_km": 762.6904219525986, "timestamp": "2025-12-10T21:43:22.485058+00:00", "meta": {"OBJECT_NAME": "COSMOS 2251 DEB", "OBJECT_ID": "1993-036ND", "EPOCH": "2025-12-10T09:20:15.213408", "MEAN_MOTION": 13.54315638, "ECCENTRICITY": 0.0392135, "INCLINATION": 74.0532, "RA_OF_ASC_NODE": 316.8871, "ARG_OF_PERICENTER": 148.3468, "MEAN_ANOMALY": 3.9089, "EPHEMERIS_TYPE": 0, "CLASSIFICATION_TYPE": "U", "NORAD_CAT_ID": 34307, "ELEMENT_SET_NO": 999, "REV_AT_EPOCH": 82830, "BSTAR": 0.00082870647, "MEAN_MOTION_DOT": 9.03e-06, "MEAN_MOTION_DDOT": 0}, "tle": {"line1": "1 34307U 93036ND  25344.38906497  .00000903  00000+0  82871-3 0  9992", "line2": "2 34307  74.0532 316.8871 0392135 148.3468   3.9089 13.54315638828300"}}, "geometry": {"type": "Point", "coordinates": [126.10915905622852, 31.14672945038933]}}, {"type": "Feature", "properties": {"norad_id": 34313, "name": "COSMOS 2251 DEB", "group": "cosmos-2251-debris", "lat": -65.40108864297692, "lon": -89.54652959031964, "alt_km": 524.1405394706899, "timestamp": "2025-12-10T21:43:22.485068+00:00", "meta": {"OBJECT_NAME": "COSMOS 2251 DEB", "OBJECT_ID": "1993-036NK", "EPOCH": "2025-12-10T14:07:48.509760", "MEAN_MOTION": 15.18506893, "ECCENTRICITY": 0.00115437, "INCLINATION": 73.9731, "RA_OF_ASC_NODE": 310.0116, "ARG_OF_PERICENTER": 84.1406, "MEAN_ANOMALY": 276.1106, "EPHEMERIS_TYPE": 0, "CLASSIFICATION_TYPE": "U", "NORAD_CAT_ID": 34313, "ELEMENT_SET_NO": 999, "REV_AT_EPOCH": 89032, "BSTAR": 0.0062908957, "MEAN_MOTION_DOT": 0.00132398, "MEAN_MOTION_DDOT": 0}, "tle": {"line1": "1 34313U 93036NK  25344.58875590  .00132398  00000+0  62909-2 0  9993", "line2": "2 34313  73.9731 310.0116 0011543  84.1406 276.1106 15.18506893890326"}}, "geometry": {"type": "Point", "coordinates": [-89.54652959031964, -65.40108864297692]}}, {"type": "Feature", "properties": {"norad_id": 34314, "name": "COSMOS 2251 DEB", "group": "cosmos-2251-debris", "lat": -70.93269969941895, "lon": -172.26898282434985, "alt_km": 909.7854523411543, "timestamp": "2025-12-10T21:43:22.485078+00:00", "meta": {"OBJECT_NAME": "COSMOS 2251 DEB", "OBJECT_ID": "1993-036NL", "EPOCH": "2025-12-10T09:13:28.583040", "MEAN_MOTION": 14.17415771, "ECCENTRICITY": 0.01027263, "INCLINATION": 74.0069, "RA_OF_ASC_NODE": 312.5866, "ARG_OF_PERICENTER": 58.8305, "MEAN_ANOMALY": 64.8312, "EPHEMERIS_TYPE": 0, "CLASSIFICATION_TYPE": "U", "NORAD_CAT_ID": 34314, "ELEMENT_SET_NO": 999, "REV_AT_EPOCH": 86624, "BSTAR": 0.00091038933, "MEAN_MOTION_DOT": 1.918e-05, "MEAN_MOTION_DDOT": 0}, "tle": {"line1": "1 34314U 93036NL  25344.38435860  .00001918  00000+0  91039-3 0  9994", "line2": "2 34314  74.0069 312.5866 0102726  58.8305  64.8312 14.17415771866249"}}, "geometry": {"type": "Point", "coordinates": [-172.26898282434985, -70.93269969941895]}}, {"type": "Feature", "properties": {"norad_id": 34316, "name": "COSMOS 2251 DEB", "group": "cosmos-2251-debris", "lat": -37.717228941030676, "lon": -32.200509623185035, "alt_km": 600.0025119724778, "timestamp": "2025-12-10T21:43:22.485088+00:00", "meta": {"OBJECT_NAME": "COSMOS 2251 DEB", "OBJECT_ID": "1993-036NN", "EPOCH": "2025-12-10T09:01:23.323296", "MEAN_MOTION": 14.91709066, "ECCENTRICITY": 0.00082369, "INCLINATION": 74.0658, "RA_OF_ASC_NODE": 341.6235, "ARG_OF_PERICENTER": 65.9173, "MEAN_ANOMALY": 294.287, "EPHEMERIS_TYPE": 0, "CLASSIFICATION_TYPE": "U", "NORAD_CAT_ID": 34316, "ELEMENT_SET_NO": 999, "REV_AT_EPOCH": 89174, "BSTAR": 0.0023172153, "MEAN_MOTION_DOT": 0.00023381, "MEAN_MOTION_DDOT": 0}, "tle": {"line1": "1 34316U 93036NN  25344.37596439  .00023381  00000+0  23172-2 0  9995", "line2": "2 34316  74.0658 341.6235 0008236  65.9173 294.2870 14.91709066891747"}}, "geometry": {"type": "Point", "coordinates": [-32.200509623185035, -37.717228941030676]}}, {"type": "Feature", "properties": {"norad_id": 34317, "name": "COSMOS 2251 DEB", "group": "cosmos-2251-debris", "lat": -3.8239311977983506, "lon": -140.11719764706953, "alt_km": 1245.0635430400553, "timestamp": "2025-12-10T21:43:22.485098+00:00", "meta": {"OBJECT_NAME": "COSMOS 2251 DEB", "OBJECT_ID": "1993-036NP", "EPOCH": "2025-12-10T14:31:20.264160", "MEAN_MOTION": 13.65118942, "ECCENTRICITY": 0.03364465, "INCLINATION": 73.9248, "RA_OF_ASC_NODE": 39.2722, "ARG_OF_PERICENTER": 28.9471, "MEAN_ANOMALY": 119.3802, "EPHEMERIS_TYPE": 0, "CLASSIFICATION_TYPE": "U", "NORAD_CAT_ID": 34317, "ELEMENT_SET_NO": 999, "REV_AT_EPOCH": 83590, "BSTAR": 0.00054045474, "MEAN_MOTION_DOT": 6.23e-06, "MEAN_MOTION_DDOT": 0}, "tle": {"line1": "1 34317U 93036NP  25344.60509565  .00000623  00000+0  54045-3 0  9994", "line2": "2 34317  73.9248  39.2722 0336446  28.9471 119.3802 13.65118942835904"}}, "geometry": {"type": "Point", "coordinates": [-140.11719764706953, -3.8239311977983506]}}, {"type": "Feature", "properties": {"norad_id": 34321, "name": "COSMOS 2251 DEB", "group": "cosmos-2251-debris", "lat": 24.278446281799294, "lon": 167.23133487399502, "alt_km": 725.7017249398405, "timestamp": "2025-12-10T21:43:22.485108+00:00", "meta": {"OBJECT_NAME": "COSMOS 2251 DEB", "OBJECT_ID": "1993-036NT", "EPOCH": "2025-12-10T11:48:49.728672", "MEAN_MOTION": 14.50039394, "ECCENTRICITY": 0.00157671, "INCLINATION": 74.0281, "RA_OF_ASC_NODE": 160.5842, "ARG_OF_PERICENTER": 290.2555, "MEAN_ANOMALY": 100.575, "EPHEMERIS_TYPE": 0, "CLASSIFICATION_TYPE": "U", "NORAD_CAT_ID": 34321, "ELEMENT_SET_NO": 999, "REV_AT_EPOCH": 88454, "BSTAR": 0.00084001718, "MEAN_MOTION_DOT": 3.235e-05, "MEAN_MOTION_DDOT": 0}, "tle": {"line1": "1 34321U 93036NT  25344.49224223  .00003235  00000+0  84002-3 0  9999", "line2": "2 34321  74.0281 160.5842 0015767 290.2555 100.5750 14.50039394884542"}}, "geometry": {"type": "Point", "coordinates": [167.23133487399502, 24.278446281799294]}}, {"type": "Feature", "properties": {"norad_id": 34323, "name": "COSMOS 2251 DEB", "group": "cosmos-2251-debris", "lat": -56.96733599998571, "lon": -27.01211209284036, "alt_km": 639.1261558434808, "timestamp": "2025-12-10T21:43:22.485118+00:00", "meta": {"OBJECT_NAME": "COSMOS 2251 DEB", "OBJECT_ID": "1993-036NV", "EPOCH": "2025-12-10T12:51:31.760064", "MEAN_MOTION": 14.74303071, "ECCENTRICITY": 0.00595756, "INCLINATION": 73.953, "RA_OF_ASC_NODE": 127.4385, "ARG_OF_PERICENTER": 172.02, "MEAN_ANOMALY": 268.5619, "EPHEMERIS_TYPE": 0, "CLASSIFICATION_TYPE": "U", "NORAD_CAT_ID": 34323, "ELEMENT_SET_NO": 999, "REV_AT_EPOCH": 88407, "BSTAR": 0.0041902635, "MEAN_MOTION_DOT": 0.00028627, "MEAN_MOTION_DDOT": 0}, "tle": {"line1": "1 34323U 93036NV  25344.53578426  .00028627  00000+0  41903-2 0  9997", "line2": "2 34323  73.9530 127.4385 0059575 172.0200 268.5619 14.74303071884071"}}, "geometry": {"type": "Point", "coordinates": [-27.01211209284036, -56.96733599998571]}}, {"type": "Feature", "properties": {"norad_id": 34325, "name": "COSMOS 2251 DEB", "group": "cosmos-2251-debris", "lat": -15.068142541653632, "lon": 20.50791004861374, "alt_km": 749.7362108413554, "timestamp": "2025-12-10T21:43:22.485128+00:00", "meta": {"OBJECT_NAME": "COSMOS 2251 DEB", "OBJECT_ID": "1993-036NX", "EPOCH": "2025-12-10T14:05:35.517696", "MEAN_MOTION": 14.044517, "ECCENTRICITY": 0.01924429, "INCLINATION": 73.8717, "RA_OF_ASC_NODE": 196.5999, "ARG_OF_PERICENTER": 214.3482, "MEAN_ANOMALY": 175.202, "EPHEMERIS_TYPE": 0, "CLASSIFICATION_TYPE": "U", "NORAD_CAT_ID": 34325, "ELEMENT_SET_NO": 999, "REV_AT_EPOCH": 85485, "BSTAR": 0.002433093, "MEAN_MOTION_DOT": 4.551e-05, "MEAN_MOTION_DDOT": 0}, "tle": {"line1": "1 34325U 93036NX  25344.58721664  .00004551  00000+0  24331-2 0  9994", "line2": "2 34325  73.8717 196.5999 0192442 214.3482 175.2020 14.04451700854859"}}, "geometry": {"type": "Point", "coordinates": [20.50791004861374, -15.068142541653632]}}]}